STARLINK-4330           
1 53080U 22077AP  22245.58334491 -.00047875  00000+0 -37446-2 0  9994
2 53080  97.6548  65.7690 0001493  50.8969 210.9921 15.01294811  1304
STARLINK-4326           
1 53081U 22077AQ  22245.58334491 -.00046538  00000+0 -36390-2 0  9997
2 53081  97.6571  65.7774 0001769  81.5549 218.9865 15.01296589  1304
STARLINK-4321           
1 53082U 22077AR  22245.58334491 -.00046624  00000+0 -36457-2 0  9998
2 53082  97.6582  65.7786 0001721  65.3732 226.5312 15.01297710  1301
STARLINK-4251           
1 53083U 22077AS  22245.58334491 -.00046580  00000+0 -36420-2 0  9990
2 53083  97.6566  65.7805 0002408  57.7199 304.1077 15.01298561  1307
STARLINK-4319           
1 53084U 22077AT  22245.58334491 -.00046293  00000+0 -36194-2 0  9990
2 53084  97.6578  65.7782 0001578  75.4654 226.4206 15.01299846  1302
STARLINK-4324           
1 53085U 22077AU  22245.58334491 -.00090731  00000+0 -71397-2 0  9991
2 53085  97.6583  65.7789 0001980  59.8819 262.0105 15.01315929  1307
STARLINK-4318           
1 53086U 22077AV  22245.58334491 -.00046374  00000+0 -36286-2 0  9994
2 53086  97.6570  65.7780 0001442  70.6822 241.2274 15.01271226  1300
STARLINK-4329           
1 53087U 22077AW  22245.58334491 -.00046002  00000+0 -35965-2 0  9996
2 53087  97.6567  65.7801 0001911  57.3468 283.2150 15.01299065  1300
STARLINK-4333           
1 53088U 22077AX  22245.58334491 -.00046463  00000+0 -36350-2 0  9997
2 53088  97.6568  65.7795 0001767  56.6820 275.1557 15.01277022  1307
TIANLIAN 2-03           
1 53100U 22078A   22245.56631803  .00000073  00000+0  00000+0 0  9993
2 53100   2.8999 284.4416 0002084 204.1126  67.6102  1.00275153   676
LARES-2                 
1 53105U 22080A   22243.04911250  .00000003  00000+0  00000+0 0  9992
2 53105  70.1617  60.7185 0005470 274.2199  85.7857  6.38965222  3102
MTCUBE 2 (ROBUSTA 1F)   
1 53106U 22080B   22241.84455576 -.00000003  00000+0  00000+0 0  9994
2 53106  70.1491  60.9382 0008126 247.0504 112.9321  6.42558378  3039
ASTROBIOCUBESAT         
1 53107U 22080C   22243.59069702 -.00000003  00000+0  00000+0 0  9991
2 53107  70.1434  60.3703 0013836 238.7815 121.1557  6.42110795  3056
TRISAT-R                
1 53108U 22080D   22243.58751619 -.00000003  00000+0  00000+0 0  9996
2 53108  70.1460  60.3680 0013330 251.9482 107.9629  6.42152117  3052
GREENCUBE               
1 53109U 22080E   22245.42228656 -.00000003  00000+0  00000+0 0  9992
2 53109  70.1414  59.4972 0009328 233.2933 126.6880  6.42584115  3156
ALPHA                   
1 53110U 22080F   22230.17553799 -.00000003  00000+0  00000+0 0  9999
2 53110  70.2142  64.9312 0115294  93.7699 267.6152  6.42490180  2171
SUPERVIEW NEO-2 O1      
1 53128U 22082A   22245.46033340  .00003089  00000+0  12696-3 0  9997
2 53128  97.3862 252.7860 0015114  96.2299  44.4502 15.24828151  7390
CZ-2C DEB               
1 53129U 22082B   22245.46655545  .00017451  00000+0  66699-3 0  9995
2 53129  97.3863 252.8687 0016101 104.2816 256.0212 15.26550350  7408
SUPERVIEW NEO-2 02      
1 53130U 22082C   22245.64453852  .00002930  00000+0  12062-3 0  9995
2 53130  97.3862 252.9929 0013593 101.5003  32.5921 15.24839054  7424
STARLINK-4063           
1 53132U 22083A   22245.58334491 -.01132563  00000+0 -57809-1 0  9993
2 53132  53.2174 178.8615 0001881  39.0380 133.2388 15.19063373  1305
STARLINK-4154           
1 53133U 22083B   22245.58334491 -.01133110  00000+0 -60510-1 0  9996
2 53133  53.2174 178.8393 0001583  46.8075  47.4236 15.17509260  1301
STARLINK-4150           
1 53134U 22083C   22245.58334491 -.01132589  00000+0 -58861-1 0  9992
2 53134  53.2175 178.8528 0001708  45.5955  95.8429 15.18445364  1301
STARLINK-4023           
1 53135U 22083D   22245.58334491 -.01132881  00000+0 -59952-1 0  9990
2 53135  53.2174 178.8439 0001730  41.7842  68.3282 15.17821239  1300
STARLINK-4152           
1 53136U 22083E   22245.58334491 -.01132731  00000+0 -59405-1 0  9998
2 53136  53.2175 178.8484 0001649  47.0692  78.7790 15.18133309  1307
STARLINK-4145           
1 53137U 22083F   22245.58334491 -.01132526  00000+0 -58326-1 0  9992
2 53137  53.2175 178.8573 0001706  46.7471 110.1360 15.18757477  1304
STARLINK-4141           
1 53138U 22083G   22245.58334491 -.01068156  00000+0 -26877-1 0  9996
2 53138  53.2175 175.3637 0001579  48.0079 137.0511 15.41964046  1309
STARLINK-4185           
1 53139U 22083H   22245.58334491 -.01143380  00000+0 -57342-1 0  9991
2 53139  53.2175 178.8706 0001619  49.2563 153.1838 15.19695194  1302
STARLINK-4170           
1 53140U 22083J   22245.58334491 -.01132715  00000+0 -57295-1 0  9990
2 53140  53.2175 178.8653 0001705  47.7096 139.7237 15.19375691  1305
STARLINK-4103           
1 53141U 22083K   22245.58334491 -.01134697  00000+0 -54834-1 0  9998
2 53141  53.2176 178.8846 0001714  42.2310 218.8009 15.20937345  1308
STARLINK-4101           
1 53142U 22083L   22245.58334491 -.01133352  00000+0 -56293-1 0  9997
2 53142  53.2175 178.8733 0001626  51.1631 166.1463 15.20000310  1302
STARLINK-4102           
1 53143U 22083M   22245.58334491 -.01135025  00000+0 -54351-1 0  9990
2 53143  53.2176 178.8882 0001466  54.2905 221.0245 15.21249587  1300
STARLINK-4100           
1 53144U 22083N   22245.58334491 -.01133796  00000+0 -55805-1 0  9999
2 53144  53.2176 178.8772 0001466  62.1378 169.8913 15.20312661  1305
STARLINK-4106           
1 53145U 22083P   22245.58334491 -.01135732  00000+0 -53393-1 0  9992
2 53145  53.2176 178.8951 0001441  51.0826 252.3620 15.21874069  1302
STARLINK-4099           
1 53146U 22083Q   22245.58334491 -.01134214  00000+0 -55318-1 0  9996
2 53146  53.2176 178.8809 0001409  66.0469 180.5564 15.20624989  1300
STARLINK-4094           
1 53147U 22083R   22245.58334491 -.01136000  00000+0 -52915-1 0  9992
2 53147  53.2176 178.8984 0001409  51.1020 266.1891 15.22186250  1303
STARLINK-4066           
1 53148U 22083S   22245.58334491 -.01106820  00000+0 -52438-1 0  9990
2 53148  53.2174 178.8902 0001599  46.7889 242.6742 15.21541550  1306
STARLINK-4021           
1 53149U 22083T   22245.58334491 -.01061992  00000+0 -14575-1 0  9991
2 53149  53.2176 174.5997 0001202  88.9689 122.5148 15.59272852  1306
STARLINK-4038           
1 53150U 22083U   22245.58334491 -.01061514  00000+0 -14614-1 0  9997
2 53150  53.2175 174.5178 0001245  71.4073 131.1518 15.59189780  1303
STARLINK-4040           
1 53151U 22083V   22245.58334491 -.01061620  00000+0 -14604-1 0  9995
2 53151  53.2175 174.5410 0001237  73.0765 131.7147 15.59210584  1301
STARLINK-4045           
1 53152U 22083W   22245.58334491 -.01061502  00000+0 -14610-1 0  9992
2 53152  53.2175 174.5255 0001232  74.3167 128.9865 15.59196713  1306
STARLINK-4098           
1 53153U 22083X   22245.58334491 -.01061738  00000+0 -14602-1 0  9995
2 53153  53.2176 174.5486 0001210  81.7111 123.8239 15.59217577  1302
STARLINK-4077           
1 53154U 22083Y   22245.58334491 -.01061755  00000+0 -14610-1 0  9994
2 53154  53.2175 174.5331 0001205  86.1754 117.8718 15.59203751  1301
STARLINK-4088           
1 53155U 22083Z   22245.58334491 -.01061771  00000+0 -14591-1 0  9991
2 53155  53.2176 174.5623 0001214  79.1877 128.5788 15.59238121  1300
STARLINK-4087           
1 53156U 22083AA  22245.58334491 -.01061785  00000+0 -14595-1 0  9991
2 53156  53.2176 174.5611 0001207  83.5367 123.4859 15.59231396  1303
STARLINK-4093           
1 53157U 22083AB  22245.58334491 -.01061820  00000+0 -14584-1 0  9990
2 53157  53.2176 174.5774 0001213  79.4295 129.8241 15.59251986  1307
STARLINK-4054           
1 53158U 22083AC  22245.58334491 -.01061664  00000+0 -14597-1 0  9991
2 53158  53.2176 174.5559 0001215  79.3192 126.9596 15.59224479  1304
STARLINK-4111           
1 53159U 22083AD  22245.58334491 -.01061603  00000+0 -14572-1 0  9998
2 53159  53.2176 174.5925 0001453  49.3636 161.3768 15.59265724  1308
STARLINK-4096           
1 53160U 22083AE  22245.58334491 -.01061762  00000+0 -14587-1 0  9992
2 53160  53.2176 174.5695 0001214  79.1463 129.3638 15.59245054  1302
STARLINK-4055           
1 53161U 22083AF  22245.58334491 -.01061973  00000+0 -14567-1 0  9995
2 53161  53.2176 174.6150 0001201  86.2153 126.7549 15.59286664  1305
STARLINK-4114           
1 53162U 22083AG  22245.58334491 -.01062011  00000+0 -14583-1 0  9998
2 53162  53.2176 174.5846 0001205  91.4446 118.5524 15.59259007  1307
STARLINK-4104           
1 53163U 22083AH  22245.58334491 -.01062088  00000+0 -14561-1 0  9999
2 53163  53.2176 174.6276 0001201  90.3262 124.1301 15.59300524  1303
STARLINK-4116           
1 53164U 22083AJ  22245.58334491 -.01061917  00000+0 -14570-1 0  9990
2 53164  53.2176 174.6072 0001206  82.4489 129.7781 15.59279735  1308
STARLINK-4090           
1 53165U 22083AK  22245.58334491 -.01062061  00000+0 -14553-1 0  9993
2 53165  53.2177 174.6360 0001200  85.1352 130.8072 15.59314177  1309
STARLINK-4110           
1 53166U 22083AL  22245.58334491 -.01062100  00000+0 -14565-1 0  9991
2 53166  53.2176 174.6222 0001203  91.7527 121.9605 15.59293666  1308
STARLINK-3683           
1 53167U 22083AM  22245.58334491 -.00030030  00000+0 -21013-3 0  9996
2 53167  53.2140 174.2502 0002715  14.6744 357.1787 15.73213168  1300
STARLINK-4105           
1 53168U 22083AN  22245.58334491 -.01062071  00000+0 -14557-1 0  9991
2 53168  53.2176 174.6281 0001200  86.5455 128.6540 15.59307258  1309
STARLINK-4117           
1 53169U 22083AP  22245.58334491 -.00049592  00000+0 -35078-3 0  9997
2 53169  53.2148 174.2552 0003767   5.4643   5.8688 15.73202731  1300
STARLINK-4095           
1 53170U 22083AQ  22245.58334491 -.00065734  00000+0 -46745-3 0  9998
2 53170  53.2152 174.2618 0002556  16.9142 352.6185 15.73202533  1301
STARLINK-4052           
1 53171U 22083AR  22245.58334491 -.00018553  00000+0 -12813-3 0  9995
2 53171  53.2146 174.2451 0002449  18.6475 358.0274 15.73181624  1305
